NORAD_CAT_ID,OBJECT_NAME,OBJECT_TYPE,EPOCH,MEAN_MOTION,ECCENTRICITY,INCLINATION,RA_OF_ASC_NODE,ARG_OF_PERICENTER,MEAN_ANOMALY,BSTAR,MEAN_MOTION_DOT,MEAN_MOTION_DDOT,TLE_LINE0,TLE_LINE1,TLE_LINE2,SEMIMAJOR_AXIS,PERIOD,APOGEE,PERIGEE,DECAYED
53389.0,STARLINK-4523,PAYLOAD,2022-09-28 06:00:00,15.08855116,0.0001889999999999,53.218,13.4808,45.6982,112.4594,-0.0012950999999999,-0.00020849,0.0,0 STARLINK-4523,1 53389U 22097B   22271.25001157 -.00020849  00000-0 -12951-2 0  9998,2 53389  53.2180  13.4808 0001890  45.6982 112.4594 15.08855116  8032,6917.834,95.437,541.007,538.3919999999998,0.0
53389.0,STARLINK-4523,PAYLOAD,2022-09-28 14:00:01,15.08821845,0.0002083,53.218,11.9863,40.5442,129.2238,-0.00059292,-9.708e-05,0.0,0 STARLINK-4523,1 53389U 22097B   22271.58334491 -.00009708  00000-0 -59292-3 0  9995,2 53389  53.2180  11.9863 0002083  40.5442 129.2238 15.08821845  1302,6917.936,95.439,541.242,538.36,0.0
53389.0,STARLINK-4523,PAYLOAD,2022-09-28 22:00:00,15.08831662,0.0001974,53.2181,10.4893,37.6433,143.6841,-0.0033679,-0.0005348,0.0,0 STARLINK-4523,1 53389U 22097B   22271.91667824 -.00053480  00000-0 -33679-2 0  9997,2 53389  53.2181  10.4893 0001974  37.6433 143.6841 15.08831662  1303,6917.906,95.438,541.136,538.405,0.0
53389.0,STARLINK-4523,PAYLOAD,2022-09-29 14:00:01,15.08810401,0.0002077,53.2183,7.4976,37.7721,166.6749,0.00094306,0.00014741,0.0,0 STARLINK-4523,1 53389U 22097B   22272.58334491  .00014741  00000-0  94306-3 0  9992,2 53389  53.2183   7.4976 0002077  37.7721 166.6749 15.08810401  8238,6917.971,95.439,541.273,538.399,0.0
53389.0,STARLINK-4523,PAYLOAD,2022-09-29 22:00:00,15.08844523,0.0002009999999999,53.2183,6.0004,37.5048,178.5052,-0.0013564999999999,-0.00021815,0.0,0 STARLINK-4523,1 53389U 22097B   22272.91667824 -.00021815  00000-0 -13565-2 0  9997,2 53389  53.2183   6.0004 0002010  37.5048 178.5052 15.08844523  1304,6917.8669999999975,95.437,541.122,538.341,0.0
53389.0,STARLINK-4523,PAYLOAD,2022-09-30 14:00:01,15.08850673,0.0002121,53.2185,3.0086,37.6421,201.5662,0.0010662,0.00016726,0.0,0 STARLINK-4523,1 53389U 22097B   22273.58334491  .00016726  00000-0  10662-2 0  9990,2 53389  53.2185   3.0086 0002121  37.6421 201.5662 15.08850673  1309,6917.848000000001,95.437,541.18,538.245,0.0
53389.0,STARLINK-4523,PAYLOAD,2022-09-30 16:00:00,15.08846501,0.0002128,53.2185,2.6347,36.5358,295.5776,0.0019292,0.00030555,0.0,0 STARLINK-4523,1 53389U 22097B   22273.66667824  .00030555  00000-0  19292-2 0  9992,2 53389  53.2185   2.6347 0002128  36.5358 295.5776 15.08846501  8400,6917.861,95.437,541.198,538.253,0.0
53389.0,STARLINK-4523,PAYLOAD,2022-09-30 22:00:00,15.08882473,0.0001986999999999,53.2184,1.5112,36.6698,214.1559,-0.0029658,-0.00047235,0.0,0 STARLINK-4523,1 53389U 22097B   22273.91667824 -.00047235  00000-0 -29658-2 0  9992,2 53389  53.2184   1.5112 0001987  36.6698 214.1559 15.08882473  1303,6917.751,95.435,540.99,538.241,0.0
53389.0,STARLINK-4523,PAYLOAD,2022-10-01 06:00:00,15.08868005,0.0001881,53.2185,0.0141,41.6164,220.8294,-0.0011493,-0.00018547,0.0,0 STARLINK-4523,1 53389U 22097B   22274.25001157 -.00018547  00000-0 -11493-2 0  9993,2 53389  53.2185   0.0141 0001881  41.6164 220.8294 15.08868005  8488,6917.795,95.436,540.961,538.359,0.0
53389.0,STARLINK-4523,PAYLOAD,2022-10-01 14:00:01,15.08844836,0.0002128,53.2184,358.5194,37.6359,236.4325,0.0004197,6.399e-05,0.0,0 STARLINK-4523,1 53389U 22097B   22274.58334491  .00006399  00000-0  41970-3 0  9993,2 53389  53.2184 358.5194 0002128  37.6359 236.4325 15.08844836  1300,6917.866,95.437,541.203,538.258,0.0
53389.0,STARLINK-4523,PAYLOAD,2022-10-01 22:00:00,15.0886497,0.0001914,53.2181,357.0219,35.5327,250.136,-0.0054938,-0.00086732,0.0,0 STARLINK-4523,1 53389U 22097B   22274.91667824 -.00086732  00000-0 -54938-2 0  9997,2 53389  53.2181 357.0219 0001914  35.5327 250.1360 15.08864970  1306,6917.804,95.436,540.993,538.345,0.0
53389.0,STARLINK-4523,PAYLOAD,2022-10-02 14:00:01,15.08815065,0.0002026,53.2181,354.0304,34.0857,274.749,0.0021622,0.00034268,0.0,0 STARLINK-4523,1 53389U 22097B   22275.58334491  .00034268  00000-0  21622-2 0  9991,2 53389  53.2181 354.0304 0002026  34.0857 274.7490 15.08815065  8691,6917.956999999999,95.439,541.2230000000002,538.42,0.0
53389.0,STARLINK-4523,PAYLOAD,2022-10-02 22:00:00,15.08855319,0.0001919,53.2178,352.5328,35.0936,285.3227,-0.0006541,-0.00010688,0.0,0 STARLINK-4523,1 53389U 22097B   22275.91667824 -.00010688  00000-0 -65410-3 0  9993,2 53389  53.2178 352.5328 0001919  35.0936 285.3227 15.08855319  1308,6917.834,95.437,541.026,538.371,0.0
53389.0,STARLINK-4523,PAYLOAD,2022-10-03 14:00:01,15.08883299,0.0002116,53.2177,349.5382,36.4339,307.2203,-0.0012054,-0.00019444,0.0,0 STARLINK-4523,1 53389U 22097B   22276.58334491 -.00019444  00000-0 -12054-2 0  9992,2 53389  53.2177 349.5382 0002116  36.4339 307.2203 15.08883299  1301,6917.748000000001,95.435,541.077,538.149,0.0
53389.0,STARLINK-4523,PAYLOAD,2022-10-03 22:00:00,15.08723175,0.000194,53.2176,348.035,37.7491,317.5878,0.0024663,0.00039056,0.0,0 STARLINK-4523,1 53389U 22097B   22276.91667824  .00039056  00000-0  24663-2 0  9996,2 53389  53.2176 348.0350 0001940  37.7491 317.5878 15.08723175  8895,6918.236999999999,95.445,541.445,538.76,0.0
53389.0,STARLINK-4523,PAYLOAD,2022-10-04 06:00:00,15.08840359,0.0001797,53.2176,346.5338,43.037,323.7492,-0.00029901,-5.044e-05,0.0,0 STARLINK-4523,1 53389U 22097B   22277.25001157 -.00005044  00000-0 -29901-3 0  9998,2 53389  53.2176 346.5338 0001797  43.0370 323.7492 15.08840359  8941,6917.879,95.438,540.987,538.501,0.0
53389.0,STARLINK-4523,PAYLOAD,2022-10-04 14:00:01,15.08839137,0.0002169,53.2176,345.0523,31.8592,346.6025,0.0018141,0.00028701,0.0,0 STARLINK-4523,1 53389U 22097B   22277.58334491  .00028701  00000-0  18141-2 0  9990,2 53389  53.2176 345.0523 0002169  31.8592 346.6025 15.08839137  1307,6917.8830000000025,95.438,541.249,538.248,0.0
53389.0,STARLINK-4523,PAYLOAD,2022-10-04 16:00:00,15.08845867,0.0002184,53.2173,344.6782,30.1197,81.242,0.0012131,0.00019074,0.0,0 STARLINK-4523,1 53389U 22097B   22277.66667824  .00019074  00000-0  12131-2 0  9994,2 53389  53.2173 344.6782 0002184  30.1197  81.2420 15.08845867  9009,6917.861999999999,95.437,541.238,538.217,0.0
53389.0,STARLINK-4523,PAYLOAD,2022-10-04 22:00:00,15.08851652,0.0002064,53.2175,343.5543,31.4328,358.6343,-0.0010588,-0.00017105,0.0,0 STARLINK-4523,1 53389U 22097B   22277.91667824 -.00017105  00000-0 -10588-2 0  9991,2 53389  53.2175 343.5543 0002064  31.4328 358.6343 15.08851652  1300,6917.845,95.437,541.138,538.2819999999998,0.0
53389.0,STARLINK-4523,PAYLOAD,2022-10-05 08:00:01,15.08915457,0.0002078,53.2174,341.6768,33.8732,100.6933,-0.0200039999999999,-0.00306021,0.0,0 STARLINK-4523,1 53389U 22097B   22278.33334491 -.00306021  00000-0 -20004-1 0  9990,2 53389  53.2174 341.6768 0002078  33.8732 100.6933 15.08915457  9107,6917.65,95.433,540.952,538.077,0.0
53389.0,STARLINK-4523,PAYLOAD,2022-10-05 14:00:01,15.08824182,0.0002070999999999,53.2177,340.5631,30.2688,23.1039,-0.00052728,-8.667e-05,0.0,0 STARLINK-4523,1 53389U 22097B   22278.58335648 -.00008667  00000-0 -52728-3 0  9997,2 53389  53.2177 340.5631 0002071  30.2688  23.1039 15.08824182  9145,6917.929,95.439,541.226,538.361,0.0
53389.0,STARLINK-4523,PAYLOAD,2022-10-05 22:00:00,15.08828715,0.0001948,53.2178,339.0652,30.7568,34.1278,-0.001819,-0.00029113,0.0,0 STARLINK-4523,1 53389U 22097B   22278.91667824 -.00029113  00000-0 -18190-2 0  9991,2 53389  53.2178 339.0652 0001948  30.7568  34.1278 15.08828715  1309,6917.915,95.438,541.127,538.432,0.0
53389.0,STARLINK-4523,PAYLOAD,2022-10-06 14:00:01,15.08813372,0.000221,53.2179,336.0743,31.2458,56.7901,0.0035378999999999,0.00056428,0.0,0 STARLINK-4523,1 53389U 22097B   22279.58334491  .00056428  00000-0  35379-2 0  9991,2 53389  53.2179 336.0743 0002210  31.2458  56.7901 15.08813372  1301,6917.962,95.439,541.356,538.298,0.0
53389.0,STARLINK-4523,PAYLOAD,2022-10-06 22:42:55,15.08826272,0.0002053,53.218,334.4425,32.6857,228.8585,0.0012024,0.00018893,0.0,0 STARLINK-4523,1 53389U 22097B   22279.94646991  .00018893  00000-0  12024-2 0  9998,2 53389  53.2180 334.4425 0002053  32.6857 228.8585 15.08826272  1308,6917.922,95.438,541.2080000000002,538.367,0.0
53389.0,STARLINK-4523,PAYLOAD,2022-10-07 00:00:00,15.08819347,0.0002032,53.2179,334.202,32.8574,159.6761,0.0020859999999999,0.00033048,0.0,0 STARLINK-4523,1 53389U 22097B   22280.00001157  .00033048  00000-0  20860-2 0  9992,2 53389  53.2179 334.2020 0002032  32.8574 159.6761 15.08819347  9355,6917.944,95.439,541.214,538.403,0.0
53389.0,STARLINK-4523,PAYLOAD,2022-10-07 14:00:01,15.08794328,0.0002248,53.2179,331.5853,30.2076,92.6206,0.0034268,0.00054605,0.0,0 STARLINK-4523,1 53389U 22097B   22280.58334491  .00054605  00000-0  34268-2 0  9994,2 53389  53.2179 331.5853 0002248  30.2076  92.6206 15.08794328  1305,6918.02,95.44,541.44,538.33,0.0
53389.0,STARLINK-4523,PAYLOAD,2022-10-07 22:00:00,15.08772525,0.0002166999999999,53.2176,330.0789,28.5818,105.8359,-0.0019831,-0.00031654,0.0,0 STARLINK-4523,1 53389U 22097B   22280.91667824 -.00031654  00000-0 -19831-2 0  9990,2 53389  53.2176 330.0789 0002167  28.5818 105.8359 15.08772525  1309,6918.087,95.442,541.451,538.452,0.0
53389.0,STARLINK-4523,PAYLOAD,2022-10-08 06:00:00,15.08708567,0.0002181,53.2174,328.5792,33.0323,112.9271,0.012559,0.00204718,0.0,0 STARLINK-4523,1 53389U 22097B   22281.25001157  .00204718  00000-0  12559-1 0  9999,2 53389  53.2174 328.5792 0002181  33.0323 112.9271 15.08708567  9542,6918.281999999997,95.446,541.656,538.638,0.0
53389.0,STARLINK-4523,PAYLOAD,2022-10-08 14:00:01,15.08823774,0.0002351,53.2177,327.0963,33.4613,124.1139,0.0010056,0.00015745,0.0,0 STARLINK-4523,1 53389U 22097B   22281.58334491  .00015745  00000-0  10056-2 0  9996,2 53389  53.2177 327.0963 0002351  33.4613 124.1139 15.08823774  1306,6917.93,95.439,541.4209999999998,538.169,0.0
